OBJECT_NAME,OBJECT_ID,EPOCH,MEAN_MOTION,ECCENTRICITY,INCLINATION,RA_OF_ASC_NODE,ARG_OF_PERICENTER,MEAN_ANOMALY,EPHEMERIS_TYPE,CLASSIFICATION_TYPE,NORAD_CAT_ID,ELEMENT_SET_NO,REV_AT_EPOCH,BSTAR,MEAN_MOTION_DOT,MEAN_MOTION_DDOT
TIANMU-1 21,2023-208C,2026-06-20T13:43:44.257728,15.35126895,.000579,97.4508,291.2234,308.9707,51.1020,0,U,58662,999,13808,.22482E-3,.7586E-4,0
TIANMU-1 22,2023-208D,2026-06-20T11:18:33.869376,15.31096042,.0002891,97.4503,287.7212,351.4150,8.7041,0,U,58663,999,13783,.2091E-3,.6203E-4,0
TIANMU-1 15,2024-004A,2026-06-20T12:08:47.414976,15.27051600,.0006363,97.4672,357.6969,350.2189,9.8924,0,U,58700,999,13628,.17035E-3,.4448E-4,0
TIANMU-1 16,2024-004B,2026-06-20T13:28:31.750176,15.26777178,.0005478,97.4620,356.9852,355.8698,4.2494,0,U,58701,999,13629,.17166E-3,.4445E-4,0
TIANMU-1 17,2024-004C,2026-06-20T13:07:35.129568,15.26776196,.0005184,97.4648,357.4570,3.0144,357.1125,0,U,58702,999,13628,.17521E-3,.4538E-4,0
TIANMU-1 18,2024-004D,2026-06-20T12:32:46.440672,15.27033059,.0003707,97.4665,357.6904,4.1464,355.9805,0,U,58703,999,13628,.17375E-3,.4534E-4,0
INSAT-3DS,2024-033A,2026-06-20T09:47:51.249120,1.00271082,.0001171,0.0479,106.3313,331.3573,59.9873,0,U,58990,999,4710,0,-.16E-5,0
METEOR-M2 4,2024-039A,2026-06-20T11:44:53.581056,14.22429813,.0007477,98.7012,130.7460,151.8855,208.2728,0,U,59051,999,11973,.2207E-4,.5E-7,0
GOES 19,2024-119A,2026-06-20T08:54:38.574720,1.00270517,.0000407,0.0015,112.2371,49.5773,165.2311,0,U,60133,999,699,0,-.253E-5,0
MTG-S1,2025-143A,2026-06-20T09:23:49.962336,1.00399694,.0000829,0.6001,339.7327,294.1194,133.2187,0,U,64723,999,345,0,-.5E-7,0
METOP-SGA1,2025-172A,2026-06-16T03:40:47.624736,14.21509720,.0000902,98.6644,226.8998,93.8213,266.3067,0,U,65159,999,4364,.41999845E-4,.49E-6,0
FENGYUN 3H,2025-219A,2026-06-20T10:09:44.767584,14.19920896,.0001572,98.6768,112.1297,74.5092,285.6258,0,U,65815,999,3784,.36111E-4,.33E-6,0
