TIANMU-1 21             
1 58662U 23208C   26171.57204002  .00007586  00000+0  22482-3 0  9995
2 58662  97.4508 291.2234 0005790 308.9707  51.1020 15.35126895138084
TIANMU-1 22             
1 58663U 23208D   26171.47122534  .00006203  00000+0  20910-3 0  9993
2 58663  97.4503 287.7212 0002891 351.4150   8.7041 15.31096042137839
TIANMU-1 15             
1 58700U 24004A   26171.50610434  .00004448  00000+0  17035-3 0  9998
2 58700  97.4672 357.6969 0006363 350.2189   9.8924 15.27051600136287
TIANMU-1 16             
1 58701U 24004B   26171.56147859  .00004445  00000+0  17166-3 0  9993
2 58701  97.4620 356.9852 0005478 355.8698   4.2494 15.26777178136292
TIANMU-1 17             
1 58702U 24004C   26171.54693437  .00004538  00000+0  17521-3 0  9998
2 58702  97.4648 357.4570 0005184   3.0144 357.1125 15.26776196136287
TIANMU-1 18             
1 58703U 24004D   26171.52275973  .00004534  00000+0  17375-3 0  9991
2 58703  97.4665 357.6904 0003707   4.1464 355.9805 15.27033059136282
INSAT-3DS               
1 58990U 24033A   26171.40823205 -.00000160  00000+0  00000+0 0  9990
2 58990   0.0479 106.3313 0001171 331.3573  59.9873  1.00271082 47109
METEOR-M2 4             
1 59051U 24039A   26171.48950904  .00000005  00000+0  22070-4 0  9993
2 59051  98.7012 130.7460 0007477 151.8855 208.2728 14.22429813119734
GOES 19                 
1 60133U 24119A   26171.37127980 -.00000253  00000+0  00000+0 0  9993
2 60133   0.0015 112.2371 0000407  49.5773 165.2311  1.00270517  6990
MTG-S1                  
1 64723U 25143A   26171.39155049 -.00000005  00000+0  00000+0 0  9994
2 64723   0.6001 339.7327 0000829 294.1194 133.2187  1.00399694  3452
METOP-SGA1              
1 65159U 25172A   26167.15332899  .00000049  00000+0  42000-4 0  9997
2 65159  98.6644 226.8998 0000902  93.8213 266.3067 14.21509720 43644
FENGYUN 3H              
1 65815U 25219A   26171.42343481  .00000033  00000+0  36111-4 0  9991
2 65815  98.6768 112.1297 0001572  74.5092 285.6258 14.19920896 37843
